[{"OBJECT_NAME":"WNISAT 1R","OBJECT_ID":"2017-042L","EPOCH":"2026-03-09T20:41:10.613760","MEAN_MOTION":15.01153186,"ECCENTRICITY":0.00133015,"INCLINATION":97.4515,"RA_OF_ASC_NODE":228.7079,"ARG_OF_PERICENTER":131.3338,"MEAN_ANOMALY":228.9034,"EPHEMERIS_TYPE":0,"CLASSIFICATION_TYPE":"U","NORAD_CAT_ID":42835,"ELEMENT_SET_NO":999,"REV_AT_EPOCH":47160,"BSTAR":0.00037839839,"MEAN_MOTION_DOT":4.802e-5,"MEAN_MOTION_DDOT":0},{"OBJECT_NAME":"STARLINK-32575","OBJECT_ID":"2024-225L","EPOCH":"2026-03-09T15:35:37.256064","MEAN_MOTION":14.98338005,"ECCENTRICITY":0.00030068,"INCLINATION":70.0022,"RA_OF_ASC_NODE":154.3672,"ARG_OF_PERICENTER":277.8977,"MEAN_ANOMALY":82.184,"EPHEMERIS_TYPE":0,"CLASSIFICATION_TYPE":"U","NORAD_CAT_ID":62173,"ELEMENT_SET_NO":999,"REV_AT_EPOCH":7012,"BSTAR":0.00057818351,"MEAN_MOTION_DOT":6.814e-5,"MEAN_MOTION_DDOT":0}]
