WNISAT 1R               
1 42835U 17042L   26068.86192839  .00004802  00000+0  37840-3 0  9992
2 42835  97.4515 228.7079 0013301 131.3338 228.9034 15.01153186471607
STARLINK-32575          
1 62173U 24225L   26068.64973675  .00006814  00000+0  57818-3 0  9993
2 62173  70.0022 154.3672 0003007 277.8977  82.1840 14.98338005 70121
